CCSDS_OMM_VERS = 2.0
CREATION_DATE  = 
ORIGINATOR     = 

OBJECT_NAME    = ALOS (DAICHI)
OBJECT_ID      = 2006-002A
CENTER_NAME    = EARTH
REF_FRAME      = TEME
TIME_SYSTEM    = UTC
MEAN_ELEMENT_THEORY = SGP/SGP4

EPOCH          = 2026-01-20T07:14:28.204512
MEAN_MOTION    = 14.69621572
ECCENTRICITY   = .00021629
INCLINATION    = 98.1144
RA_OF_ASC_NODE = 336.5315
ARG_OF_PERICENTER = 84.3490
MEAN_ANOMALY   = 275.7962

EPHEMERIS_TYPE = 0
CLASSIFICATION_TYPE = U
NORAD_CAT_ID   = 28931
ELEMENT_SET_NO = 999
REV_AT_EPOCH   = 6637
BSTAR          = .33806129E-3
MEAN_MOTION_DOT = .1961E-4
MEAN_MOTION_DDOT = 0

CCSDS_OMM_VERS = 2.0
CREATION_DATE  = 
ORIGINATOR     = 

OBJECT_NAME    = H-2A R/B
OBJECT_ID      = 2006-002B
CENTER_NAME    = EARTH
REF_FRAME      = TEME
TIME_SYSTEM    = UTC
MEAN_ELEMENT_THEORY = SGP/SGP4

EPOCH          = 2026-01-20T06:59:41.906400
MEAN_MOTION    = 15.15381993
ECCENTRICITY   = .00541697
INCLINATION    = 98.2341
RA_OF_ASC_NODE = 163.2196
ARG_OF_PERICENTER = 46.8389
MEAN_ANOMALY   = 313.7350

EPHEMERIS_TYPE = 0
CLASSIFICATION_TYPE = U
NORAD_CAT_ID   = 28932
ELEMENT_SET_NO = 999
REV_AT_EPOCH   = 8710
BSTAR          = .70326496E-3
MEAN_MOTION_DOT = .1371E-3
MEAN_MOTION_DDOT = 0

CCSDS_OMM_VERS = 2.0
CREATION_DATE  = 
ORIGINATOR     = 

OBJECT_NAME    = RESURS-DK 1
OBJECT_ID      = 2006-021A
CENTER_NAME    = EARTH
REF_FRAME      = TEME
TIME_SYSTEM    = UTC
MEAN_ELEMENT_THEORY = SGP/SGP4

EPOCH          = 2026-01-20T07:49:42.682944
MEAN_MOTION    = 15.12405531
ECCENTRICITY   = .00052521
INCLINATION    = 69.9343
RA_OF_ASC_NODE = 2.0967
ARG_OF_PERICENTER = 222.8204
MEAN_ANOMALY   = 137.2554

EPHEMERIS_TYPE = 0
CLASSIFICATION_TYPE = U
NORAD_CAT_ID   = 29228
ELEMENT_SET_NO = 999
REV_AT_EPOCH   = 8021
BSTAR          = .25634845E-3
MEAN_MOTION_DOT = .4357E-4
MEAN_MOTION_DDOT = 0

CCSDS_OMM_VERS = 2.0
CREATION_DATE  = 
ORIGINATOR     = 

OBJECT_NAME    = CZ-4B R/B
OBJECT_ID      = 2006-046C
CENTER_NAME    = EARTH
REF_FRAME      = TEME
TIME_SYSTEM    = UTC
MEAN_ELEMENT_THEORY = SGP/SGP4

EPOCH          = 2026-01-20T02:46:46.334784
MEAN_MOTION    = 15.16302492
ECCENTRICITY   = .00352643
INCLINATION    = 97.5680
RA_OF_ASC_NODE = 65.1509
ARG_OF_PERICENTER = 76.6411
MEAN_ANOMALY   = 283.8750

EPHEMERIS_TYPE = 0
CLASSIFICATION_TYPE = U
NORAD_CAT_ID   = 29507
ELEMENT_SET_NO = 999
REV_AT_EPOCH   = 5268
BSTAR          = .3580413E-3
MEAN_MOTION_DOT = .6978E-4
MEAN_MOTION_DDOT = 0

CCSDS_OMM_VERS = 2.0
CREATION_DATE  = 
ORIGINATOR     = 

OBJECT_NAME    = CZ-2C R/B
OBJECT_ID      = 2007-010B
CENTER_NAME    = EARTH
REF_FRAME      = TEME
TIME_SYSTEM    = UTC
MEAN_ELEMENT_THEORY = SGP/SGP4

EPOCH          = 2026-01-20T07:50:02.471136
MEAN_MOTION    = 14.20226496
ECCENTRICITY   = .00600343
INCLINATION    = 98.3971
RA_OF_ASC_NODE = 136.0356
ARG_OF_PERICENTER = 75.2014
MEAN_ANOMALY   = 285.5804

EPHEMERIS_TYPE = 0
CLASSIFICATION_TYPE = U
NORAD_CAT_ID   = 31114
ELEMENT_SET_NO = 999
REV_AT_EPOCH   = 97285
BSTAR          = .97087037E-4
MEAN_MOTION_DOT = .171E-5
MEAN_MOTION_DDOT = 0

CCSDS_OMM_VERS = 2.0
CREATION_DATE  = 
ORIGINATOR     = 

OBJECT_NAME    = COSMO-SKYMED 1
OBJECT_ID      = 2007-023A
CENTER_NAME    = EARTH
REF_FRAME      = TEME
TIME_SYSTEM    = UTC
MEAN_ELEMENT_THEORY = SGP/SGP4

EPOCH          = 2026-01-20T07:35:42.226080
MEAN_MOTION    = 14.96093150
ECCENTRICITY   = .00009542
INCLINATION    = 97.8832
RA_OF_ASC_NODE = 210.9787
ARG_OF_PERICENTER = 82.7677
MEAN_ANOMALY   = 277.3652

EPHEMERIS_TYPE = 0
CLASSIFICATION_TYPE = U
NORAD_CAT_ID   = 31598
ELEMENT_SET_NO = 999
REV_AT_EPOCH   = 767
BSTAR          = .9064309E-3
MEAN_MOTION_DOT = .10141E-3
MEAN_MOTION_DDOT = 0

CCSDS_OMM_VERS = 2.0
CREATION_DATE  = 
ORIGINATOR     = 

OBJECT_NAME    = COSMOS 2428
OBJECT_ID      = 2007-029A
CENTER_NAME    = EARTH
REF_FRAME      = TEME
TIME_SYSTEM    = UTC
MEAN_ELEMENT_THEORY = SGP/SGP4

EPOCH          = 2026-01-20T06:03:02.221056
MEAN_MOTION    = 14.12914894
ECCENTRICITY   = .00060035
INCLINATION    = 70.9402
RA_OF_ASC_NODE = 305.0227
ARG_OF_PERICENTER = 332.2555
MEAN_ANOMALY   = 27.8245

EPHEMERIS_TYPE = 0
CLASSIFICATION_TYPE = U
NORAD_CAT_ID   = 31792
ELEMENT_SET_NO = 999
REV_AT_EPOCH   = 95725
BSTAR          = .26532068E-3
MEAN_MOTION_DOT = .446E-5
MEAN_MOTION_DDOT = 0

CCSDS_OMM_VERS = 2.0
CREATION_DATE  = 
ORIGINATOR     = 

OBJECT_NAME    = SL-16 R/B
OBJECT_ID      = 2007-029B
CENTER_NAME    = EARTH
REF_FRAME      = TEME
TIME_SYSTEM    = UTC
MEAN_ELEMENT_THEORY = SGP/SGP4

EPOCH          = 2026-01-20T03:38:04.023744
MEAN_MOTION    = 14.14822227
ECCENTRICITY   = .00021179
INCLINATION    = 70.9750
RA_OF_ASC_NODE = 274.4157
ARG_OF_PERICENTER = 273.1664
MEAN_ANOMALY   = 238.8039

EPHEMERIS_TYPE = 0
CLASSIFICATION_TYPE = U
NORAD_CAT_ID   = 31793
ELEMENT_SET_NO = 999
REV_AT_EPOCH   = 95850
BSTAR          = -.74009909E-4
MEAN_MOTION_DOT = -.191E-5
MEAN_MOTION_DDOT = 0

CCSDS_OMM_VERS = 2.0
CREATION_DATE  = 
ORIGINATOR     = 

OBJECT_NAME    = KORONAS-FOTON
OBJECT_ID      = 2009-003A
CENTER_NAME    = EARTH
REF_FRAME      = TEME
TIME_SYSTEM    = UTC
MEAN_ELEMENT_THEORY = SGP/SGP4

EPOCH          = 2026-01-20T07:27:26.171712
MEAN_MOTION    = 15.42017163
ECCENTRICITY   = .00104726
INCLINATION    = 82.4333
RA_OF_ASC_NODE = 326.1153
ARG_OF_PERICENTER = 343.5736
MEAN_ANOMALY   = 16.5169

EPHEMERIS_TYPE = 0
CLASSIFICATION_TYPE = U
NORAD_CAT_ID   = 33504
ELEMENT_SET_NO = 999
REV_AT_EPOCH   = 93828
BSTAR          = .40055731E-3
MEAN_MOTION_DOT = .1716E-3
MEAN_MOTION_DDOT = 0

CCSDS_OMM_VERS = 2.0
CREATION_DATE  = 
ORIGINATOR     = 

OBJECT_NAME    = CZ-2C R/B
OBJECT_ID      = 2011-030B
CENTER_NAME    = EARTH
REF_FRAME      = TEME
TIME_SYSTEM    = UTC
MEAN_ELEMENT_THEORY = SGP/SGP4

EPOCH          = 2026-01-20T07:42:07.599456
MEAN_MOTION    = 14.81027199
ECCENTRICITY   = .0053474
INCLINATION    = 97.8467
RA_OF_ASC_NODE = 338.5879
ARG_OF_PERICENTER = 146.3766
MEAN_ANOMALY   = 341.8984

EPHEMERIS_TYPE = 0
CLASSIFICATION_TYPE = U
NORAD_CAT_ID   = 37731
ELEMENT_SET_NO = 999
REV_AT_EPOCH   = 78293
BSTAR          = .21879084E-3
MEAN_MOTION_DOT = .1684E-4
MEAN_MOTION_DDOT = 0

CCSDS_OMM_VERS = 2.0
CREATION_DATE  = 
ORIGINATOR     = 

OBJECT_NAME    = H-2A R/B
OBJECT_ID      = 2012-025E
CENTER_NAME    = EARTH
REF_FRAME      = TEME
TIME_SYSTEM    = UTC
MEAN_ELEMENT_THEORY = SGP/SGP4

EPOCH          = 2026-01-19T20:49:39.009504
MEAN_MOTION    = 14.94705851
ECCENTRICITY   = .00460733
INCLINATION    = 98.4654
RA_OF_ASC_NODE = 343.0557
ARG_OF_PERICENTER = 111.5133
MEAN_ANOMALY   = 249.1006

EPHEMERIS_TYPE = 0
CLASSIFICATION_TYPE = U
NORAD_CAT_ID   = 38341
ELEMENT_SET_NO = 999
REV_AT_EPOCH   = 74092
BSTAR          = .23548457E-3
MEAN_MOTION_DOT = .254E-4
MEAN_MOTION_DDOT = 0

CCSDS_OMM_VERS = 2.0
CREATION_DATE  = 
ORIGINATOR     = 

OBJECT_NAME    = SHIJIAN-16 (SJ-16)
OBJECT_ID      = 2013-057A
CENTER_NAME    = EARTH
REF_FRAME      = TEME
TIME_SYSTEM    = UTC
MEAN_ELEMENT_THEORY = SGP/SGP4

EPOCH          = 2026-01-20T06:58:57.550368
MEAN_MOTION    = 14.92158604
ECCENTRICITY   = .0017559
INCLINATION    = 74.9724
RA_OF_ASC_NODE = 276.7049
ARG_OF_PERICENTER = 230.9813
MEAN_ANOMALY   = 128.9813

EPHEMERIS_TYPE = 0
CLASSIFICATION_TYPE = U
NORAD_CAT_ID   = 39358
ELEMENT_SET_NO = 999
REV_AT_EPOCH   = 66428
BSTAR          = .34978165E-3
MEAN_MOTION_DOT = .3543E-4
MEAN_MOTION_DDOT = 0

