ALOS (DAICHI)           
1 28931U 06002A   26020.30171533  .00001961  00000+0  33806-3 0  9993
2 28931  98.1144 336.5315 0002162  84.3490 275.7962 14.69621572 66370
H-2A R/B                
1 28932U 06002B   26020.29145725  .00013710  00000+0  70326-3 0  9999
2 28932  98.2341 163.2196 0054169  46.8389 313.7350 15.15381993 87107
RESURS-DK 1             
1 29228U 06021A   26020.32618846  .00004357  00000+0  25635-3 0  9992
2 29228  69.9343   2.0967 0005252 222.8204 137.2554 15.12405531 80212
CZ-4B R/B               
1 29507U 06046C   26020.11581406  .00006978  00000+0  35804-3 0  9997
2 29507  97.5680  65.1509 0035264  76.6411 283.8750 15.16302492 52688
CZ-2C R/B               
1 31114U 07010B   26020.32641749  .00000171  00000+0  97087-4 0  9997
2 31114  98.3971 136.0356 0060034  75.2014 285.5804 14.20226496972854
COSMO-SKYMED 1          
1 31598U 07023A   26020.31646095  .00010141  00000+0  90643-3 0  9993
2 31598  97.8832 210.9787 0000954  82.7677 277.3652 14.96093150  7674
COSMOS 2428             
1 31792U 07029A   26020.25210904  .00000446  00000+0  26532-3 0  9997
2 31792  70.9402 305.0227 0006003 332.2555  27.8245 14.12914894957258
SL-16 R/B               
1 31793U 07029B   26020.15143546 -.00000191  00000+0 -74010-4 0  9998
2 31793  70.9750 274.4157 0002117 273.1664 238.8039 14.14822227958506
KORONAS-FOTON           
1 33504U 09003A   26020.31071958  .00017160  00000+0  40056-3 0  9993
2 33504  82.4333 326.1153 0010472 343.5736  16.5169 15.42017163938284
CZ-2C R/B               
1 37731U 11030B   26020.32092129  .00001684  00000+0  21879-3 0  9992
2 37731  97.8467 338.5879 0053474 146.3766 341.8984 14.81027199782931
H-2A R/B                
1 38341U 12025E   26019.86781261  .00002540  00000+0  23548-3 0  9991
2 38341  98.4654 343.0557 0046073 111.5133 249.1006 14.94705851740927
SHIJIAN-16 (SJ-16)      
1 39358U 13057A   26020.29094387  .00003543  00000+0  34978-3 0  9994
2 39358  74.9724 276.7049 0017559 230.9813 128.9813 14.92158604664289
